CCSDS_OMM_VERS = 2.0
CREATION_DATE  = 
ORIGINATOR     = 

OBJECT_NAME    = ALOS (DAICHI)
OBJECT_ID      = 2006-002A
CENTER_NAME    = EARTH
REF_FRAME      = TEME
TIME_SYSTEM    = UTC
MEAN_ELEMENT_THEORY = SGP/SGP4

EPOCH          = 2025-12-17T17:37:14.152512
MEAN_MOTION    = 14.69501788
ECCENTRICITY   = .00013612
INCLINATION    = 98.1098
RA_OF_ASC_NODE = 303.1864
ARG_OF_PERICENTER = 113.5739
MEAN_ANOMALY   = 246.5610

EPHEMERIS_TYPE = 0
CLASSIFICATION_TYPE = U
NORAD_CAT_ID   = 28931
ELEMENT_SET_NO = 999
REV_AT_EPOCH   = 6144
BSTAR          = .19545051E-3
MEAN_MOTION_DOT = .111E-4
MEAN_MOTION_DDOT = 0

CCSDS_OMM_VERS = 2.0
CREATION_DATE  = 
ORIGINATOR     = 

OBJECT_NAME    = H-2A R/B
OBJECT_ID      = 2006-002B
CENTER_NAME    = EARTH
REF_FRAME      = TEME
TIME_SYSTEM    = UTC
MEAN_ELEMENT_THEORY = SGP/SGP4

EPOCH          = 2025-12-31T08:20:52.372896
MEAN_MOTION    = 15.14983796
ECCENTRICITY   = .00546958
INCLINATION    = 98.2316
RA_OF_ASC_NODE = 141.6227
ARG_OF_PERICENTER = 113.6129
MEAN_ANOMALY   = 247.0857

EPHEMERIS_TYPE = 0
CLASSIFICATION_TYPE = U
NORAD_CAT_ID   = 28932
ELEMENT_SET_NO = 999
REV_AT_EPOCH   = 8408
BSTAR          = .79679743E-3
MEAN_MOTION_DOT = .15382E-3
MEAN_MOTION_DDOT = 0

CCSDS_OMM_VERS = 2.0
CREATION_DATE  = 
ORIGINATOR     = 

OBJECT_NAME    = RESURS-DK 1
OBJECT_ID      = 2006-021A
CENTER_NAME    = EARTH
REF_FRAME      = TEME
TIME_SYSTEM    = UTC
MEAN_ELEMENT_THEORY = SGP/SGP4

EPOCH          = 2025-12-31T13:11:59.378784
MEAN_MOTION    = 15.12283479
ECCENTRICITY   = .0007006
INCLINATION    = 69.9348
RA_OF_ASC_NODE = 53.2216
ARG_OF_PERICENTER = 242.6600
MEAN_ANOMALY   = 117.3853

EPHEMERIS_TYPE = 0
CLASSIFICATION_TYPE = U
NORAD_CAT_ID   = 29228
ELEMENT_SET_NO = 999
REV_AT_EPOCH   = 7722
BSTAR          = .28925465E-3
MEAN_MOTION_DOT = .4915E-4
MEAN_MOTION_DDOT = 0

CCSDS_OMM_VERS = 2.0
CREATION_DATE  = 
ORIGINATOR     = 

OBJECT_NAME    = CZ-4B R/B
OBJECT_ID      = 2006-046C
CENTER_NAME    = EARTH
REF_FRAME      = TEME
TIME_SYSTEM    = UTC
MEAN_ELEMENT_THEORY = SGP/SGP4

EPOCH          = 2025-12-31T13:56:38.141664
MEAN_MOTION    = 15.16086413
ECCENTRICITY   = .00347895
INCLINATION    = 97.5717
RA_OF_ASC_NODE = 45.6685
ARG_OF_PERICENTER = 141.4908
MEAN_ANOMALY   = 218.8817

EPHEMERIS_TYPE = 0
CLASSIFICATION_TYPE = U
NORAD_CAT_ID   = 29507
ELEMENT_SET_NO = 999
REV_AT_EPOCH   = 4972
BSTAR          = .42335029E-3
MEAN_MOTION_DOT = .821E-4
MEAN_MOTION_DDOT = 0

CCSDS_OMM_VERS = 2.0
CREATION_DATE  = 
ORIGINATOR     = 

OBJECT_NAME    = CZ-2C R/B
OBJECT_ID      = 2007-010B
CENTER_NAME    = EARTH
REF_FRAME      = TEME
TIME_SYSTEM    = UTC
MEAN_ELEMENT_THEORY = SGP/SGP4

EPOCH          = 2025-12-31T07:38:08.095200
MEAN_MOTION    = 14.20218462
ECCENTRICITY   = .0059836
INCLINATION    = 98.3975
RA_OF_ASC_NODE = 117.0342
ARG_OF_PERICENTER = 132.3993
MEAN_ANOMALY   = 228.2270

EPHEMERIS_TYPE = 0
CLASSIFICATION_TYPE = U
NORAD_CAT_ID   = 31114
ELEMENT_SET_NO = 999
REV_AT_EPOCH   = 97001
BSTAR          = .14493E-3
MEAN_MOTION_DOT = .275E-5
MEAN_MOTION_DDOT = 0

CCSDS_OMM_VERS = 2.0
CREATION_DATE  = 
ORIGINATOR     = 

OBJECT_NAME    = COSMO-SKYMED 1
OBJECT_ID      = 2007-023A
CENTER_NAME    = EARTH
REF_FRAME      = TEME
TIME_SYSTEM    = UTC
MEAN_ELEMENT_THEORY = SGP/SGP4

EPOCH          = 2025-12-31T14:02:46.495104
MEAN_MOTION    = 14.95924059
ECCENTRICITY   = .00010937
INCLINATION    = 97.8832
RA_OF_ASC_NODE = 191.1094
ARG_OF_PERICENTER = 86.6917
MEAN_ANOMALY   = 273.4429

EPHEMERIS_TYPE = 0
CLASSIFICATION_TYPE = U
NORAD_CAT_ID   = 31598
ELEMENT_SET_NO = 999
REV_AT_EPOCH   = 472
BSTAR          = .60911712E-3
MEAN_MOTION_DOT = .6763E-4
MEAN_MOTION_DDOT = 0

CCSDS_OMM_VERS = 2.0
CREATION_DATE  = 
ORIGINATOR     = 

OBJECT_NAME    = COSMOS 2428
OBJECT_ID      = 2007-029A
CENTER_NAME    = EARTH
REF_FRAME      = TEME
TIME_SYSTEM    = UTC
MEAN_ELEMENT_THEORY = SGP/SGP4

EPOCH          = 2025-12-31T08:35:44.287008
MEAN_MOTION    = 14.12899218
ECCENTRICITY   = .00047423
INCLINATION    = 70.9376
RA_OF_ASC_NODE = 346.7879
ARG_OF_PERICENTER = 357.6827
MEAN_ANOMALY   = 2.4271

EPHEMERIS_TYPE = 0
CLASSIFICATION_TYPE = U
NORAD_CAT_ID   = 31792
ELEMENT_SET_NO = 999
REV_AT_EPOCH   = 95444
BSTAR          = .21506587E-3
MEAN_MOTION_DOT = .353E-5
MEAN_MOTION_DDOT = 0

CCSDS_OMM_VERS = 2.0
CREATION_DATE  = 
ORIGINATOR     = 

OBJECT_NAME    = SL-16 R/B
OBJECT_ID      = 2007-029B
CENTER_NAME    = EARTH
REF_FRAME      = TEME
TIME_SYSTEM    = UTC
MEAN_ELEMENT_THEORY = SGP/SGP4

EPOCH          = 2025-12-31T08:20:48.477984
MEAN_MOTION    = 14.14823467
ECCENTRICITY   = .00019942
INCLINATION    = 70.9772
RA_OF_ASC_NODE = 316.0414
ARG_OF_PERICENTER = 269.1563
MEAN_ANOMALY   = 205.5053

EPHEMERIS_TYPE = 0
CLASSIFICATION_TYPE = U
NORAD_CAT_ID   = 31793
ELEMENT_SET_NO = 999
REV_AT_EPOCH   = 95570
BSTAR          = .1600475E-3
MEAN_MOTION_DOT = .261E-5
MEAN_MOTION_DDOT = 0

CCSDS_OMM_VERS = 2.0
CREATION_DATE  = 
ORIGINATOR     = 

OBJECT_NAME    = KORONAS-FOTON
OBJECT_ID      = 2009-003A
CENTER_NAME    = EARTH
REF_FRAME      = TEME
TIME_SYSTEM    = UTC
MEAN_ELEMENT_THEORY = SGP/SGP4

EPOCH          = 2025-12-31T10:49:37.142976
MEAN_MOTION    = 15.41577854
ECCENTRICITY   = .00128977
INCLINATION    = 82.4306
RA_OF_ASC_NODE = 346.7108
ARG_OF_PERICENTER = 50.6577
MEAN_ANOMALY   = 309.5810

EPHEMERIS_TYPE = 0
CLASSIFICATION_TYPE = U
NORAD_CAT_ID   = 33504
ELEMENT_SET_NO = 999
REV_AT_EPOCH   = 93522
BSTAR          = .31964395E-3
MEAN_MOTION_DOT = .13512E-3
MEAN_MOTION_DDOT = 0

CCSDS_OMM_VERS = 2.0
CREATION_DATE  = 
ORIGINATOR     = 

OBJECT_NAME    = CZ-2C R/B
OBJECT_ID      = 2011-030B
CENTER_NAME    = EARTH
REF_FRAME      = TEME
TIME_SYSTEM    = UTC
MEAN_ELEMENT_THEORY = SGP/SGP4

EPOCH          = 2025-12-31T10:54:45.692064
MEAN_MOTION    = 14.80966392
ECCENTRICITY   = .00519073
INCLINATION    = 97.8429
RA_OF_ASC_NODE = 319.1500
ARG_OF_PERICENTER = 211.1446
MEAN_ANOMALY   = 263.0327

EPHEMERIS_TYPE = 0
CLASSIFICATION_TYPE = U
NORAD_CAT_ID   = 37731
ELEMENT_SET_NO = 999
REV_AT_EPOCH   = 77999
BSTAR          = .33224787E-3
MEAN_MOTION_DOT = .2577E-4
MEAN_MOTION_DDOT = 0

CCSDS_OMM_VERS = 2.0
CREATION_DATE  = 
ORIGINATOR     = 

OBJECT_NAME    = H-2A R/B
OBJECT_ID      = 2012-025E
CENTER_NAME    = EARTH
REF_FRAME      = TEME
TIME_SYSTEM    = UTC
MEAN_ELEMENT_THEORY = SGP/SGP4

EPOCH          = 2025-12-31T10:52:55.060320
MEAN_MOTION    = 14.94582455
ECCENTRICITY   = .00448941
INCLINATION    = 98.4622
RA_OF_ASC_NODE = 322.1306
ARG_OF_PERICENTER = 173.9331
MEAN_ANOMALY   = 186.2441

EPHEMERIS_TYPE = 0
CLASSIFICATION_TYPE = U
NORAD_CAT_ID   = 38341
ELEMENT_SET_NO = 999
REV_AT_EPOCH   = 73802
BSTAR          = .4525372E-3
MEAN_MOTION_DOT = .4926E-4
MEAN_MOTION_DDOT = 0

CCSDS_OMM_VERS = 2.0
CREATION_DATE  = 
ORIGINATOR     = 

OBJECT_NAME    = SHIJIAN-16 (SJ-16)
OBJECT_ID      = 2013-057A
CENTER_NAME    = EARTH
REF_FRAME      = TEME
TIME_SYSTEM    = UTC
MEAN_ELEMENT_THEORY = SGP/SGP4

EPOCH          = 2025-12-31T15:29:36.453984
MEAN_MOTION    = 14.92066212
ECCENTRICITY   = .0017992
INCLINATION    = 74.9738
RA_OF_ASC_NODE = 313.8795
ARG_OF_PERICENTER = 276.1859
MEAN_ANOMALY   = 83.7280

EPHEMERIS_TYPE = 0
CLASSIFICATION_TYPE = U
NORAD_CAT_ID   = 39358
ELEMENT_SET_NO = 999
REV_AT_EPOCH   = 66135
BSTAR          = .4343951E-3
MEAN_MOTION_DOT = .4398E-4
MEAN_MOTION_DDOT = 0

