ALOS (DAICHI)           
1 28931U 06002A   25351.73419158  .00001110  00000+0  19545-3 0  9994
2 28931  98.1098 303.1864 0001361 113.5739 246.5610 14.69501788 61443
H-2A R/B                
1 28932U 06002B   25365.34782839  .00015382  00000+0  79680-3 0  9998
2 28932  98.2316 141.6227 0054695 113.6129 247.0857 15.14983796 84086
RESURS-DK 1             
1 29228U 06021A   25365.54999281  .00004915  00000+0  28925-3 0  9997
2 29228  69.9348  53.2216 0007006 242.6600 117.3853 15.12283479 77224
CZ-4B R/B               
1 29507U 06046C   25365.58099701  .00008210  00000+0  42335-3 0  9999
2 29507  97.5717  45.6685 0034789 141.4908 218.8817 15.16086413 49725
CZ-2C R/B               
1 31114U 07010B   25365.31814925  .00000275  00000+0  14493-3 0  9999
2 31114  98.3975 117.0342 0059836 132.3993 228.2270 14.20218462970012
COSMO-SKYMED 1          
1 31598U 07023A   25365.58526036  .00006763  00000+0  60912-3 0  9996
2 31598  97.8832 191.1094 0001093  86.6917 273.4429 14.95924059  4722
COSMOS 2428             
1 31792U 07029A   25365.35815147  .00000353  00000+0  21507-3 0  9993
2 31792  70.9376 346.7879 0004742 357.6827   2.4271 14.12899218954442
SL-16 R/B               
1 31793U 07029B   25365.34778331  .00000261  00000+0  16005-3 0  9991
2 31793  70.9772 316.0414 0001994 269.1563 205.5053 14.14823467955707
KORONAS-FOTON           
1 33504U 09003A   25365.45112434  .00013512  00000+0  31964-3 0  9999
2 33504  82.4306 346.7108 0012897  50.6577 309.5810 15.41577854935220
CZ-2C R/B               
1 37731U 11030B   25365.45469551  .00002577  00000+0  33225-3 0  9994
2 37731  97.8429 319.1500 0051907 211.1446 263.0327 14.80966392779994
H-2A R/B                
1 38341U 12025E   25365.45341505  .00004926  00000+0  45254-3 0  9990
2 38341  98.4622 322.1306 0044894 173.9331 186.2441 14.94582455738028
SHIJIAN-16 (SJ-16)      
1 39358U 13057A   25365.64556081  .00004398  00000+0  43440-3 0  9991
2 39358  74.9738 313.8795 0017992 276.1859  83.7280 14.92066212661352
